{
    "links": {
        "self": "http://www.neowsapp.com/rest/v1/neo/3836081?api_key=iIulBulltgU6a56xZRHN4H3l9WmuAYTsLGpBGhQ2"
    },
    "id": "3836081",
    "neo_reference_id": "3836081",
    "name": "(2018 VH3)",
    "designation": "2018 VH3",
    "nasa_jpl_url": "http://ssd.jpl.nasa.gov/sbdb.cgi?sstr=3836081",
    "absolute_magnitude_h": 24.4,
    "estimated_diameter": {
        "kilometers": {
            "estimated_diameter_min": 0.0350392641,
            "estimated_diameter_max": 0.0783501764
        },
        "meters": {
            "estimated_diameter_min": 35.0392641108,
            "estimated_diameter_max": 78.3501764334
        },
        "miles": {
            "estimated_diameter_min": 0.0217723826,
            "estimated_diameter_max": 0.0486845275
        },
        "feet": {
            "estimated_diameter_min": 114.9582192654,
            "estimated_diameter_max": 257.0543928497
        }
    },
    "is_potentially_hazardous_asteroid": false,
    "close_approach_data": [
        {
            "close_approach_date": "2016-11-17",
            "close_approach_date_full": "2016-Nov-17 15:30",
            "epoch_date_close_approach": 1479396600000,
            "relative_velocity": {
                "kilometers_per_second": "4.0329234287",
                "kilometers_per_hour": "14518.5243433094",
                "miles_per_hour": "9021.2464176524"
            },
            "miss_distance": {
                "astronomical": "1.9992040629",
                "lunar": "777.6903804681",
                "kilometers": "299076669.505186023",
                "miles": "185837625.0253441974"
            },
            "orbiting_body": "Juptr"
        },
        {
            "close_approach_date": "2018-10-31",
            "close_approach_date_full": "2018-Oct-31 02:44",
            "epoch_date_close_approach": 1540953840000,
            "relative_velocity": {
                "kilometers_per_second": "10.3710039837",
                "kilometers_per_hour": "37335.6143413394",
                "miles_per_hour": "23198.8988111506"
            },
            "miss_distance": {
                "astronomical": "0.0683829535",
                "lunar": "26.6009689115",
                "kilometers": "10229944.187909045",
                "miles": "6356592.559253021"
            },
            "orbiting_body": "Earth"
        }
    ],
    "orbital_data": {
        "orbit_id": "8",
        "orbit_determination_date": "2019-07-27 14:01:15",
        "first_observation_date": "2018-11-05",
        "last_observation_date": "2018-12-10",
        "data_arc_in_days": 35,
        "observations_used": 71,
        "orbit_uncertainty": "7",
        "minimum_orbit_intersection": ".0664813",
        "jupiter_tisserand_invariant": "3.228",
        "epoch_osculation": "2459000.5",
        "eccentricity": ".5779020653455237",
        "semi_major_axis": "2.432915910275213",
        "inclination": "12.66228907438643",
        "ascending_node_longitude": "228.2655161058601",
        "orbital_period": "1386.082481738843",
        "perihelion_distance": "1.026928780915183",
        "perihelion_argument": "151.800777603853",
        "aphelion_distance": "3.838903039635243",
        "perihelion_time": "2458407.409126614712",
        "mean_anomaly": "154.0404104601708",
        "mean_motion": ".2597248033525245",
        "equinox": "J2000",
        "orbit_class": {
            "orbit_class_type": "AMO",
            "orbit_class_description": "Near-Earth asteroid orbits similar to that of 1221 Amor",
            "orbit_class_range": "1.017 AU < q (perihelion) < 1.3 AU"
        }
    },
    "is_sentry_object": false
}